{
  "type": "FeatureCollection",
  "features": [
    {
      "type": "Feature",
      "geometry": {
        "type": "Point",
        "coordinates": [
          -94.3895,
          36.58841
        ]
      },
      "properties": {
        "name": "Kozy Kamp River Access",
        "slug": "kozy-kamp-river-access",
        "expected_mile": 0.43,
        "snap_metres": 28.6,
        "address": "71 Elk River Road, Pineville, MO 64856",
        "website": "https://kozykamp.com/float-trips",
        "imagery_extent": [
          -94.3915,
          36.587,
          -94.3865,
          36.591
        ],
        "selected_pixel": [
          400,
          518
        ],
        "bank": "North/right bank; campground track to the water west of the highway bridge.",
        "open_question": "Confirm operator-designated launch at the selected track and parking/check-in entrance. Owner screenshot approach pin is 36.588894,-94.389059, not a water-entry pin.",
        "status": "candidate_not_approved",
        "estimated_position_accuracy_m": 30,
        "image_size": [
          1000,
          800
        ],
        "imagery_source": "https://basemap.nationalmap.gov/arcgis/rest/services/USGSImageryOnly/MapServer",
        "reviewed_at": "2026-10-04",
        "review_method": "Operator property/route maps + owner screenshots + USGS georeferenced imagery; PostGIS distance/mile checked read-only."
      }
    },
    {
      "type": "Feature",
      "geometry": {
        "type": "Point",
        "coordinates": [
          -94.45495,
          36.58521
        ]
      },
      "properties": {
        "name": "Trestle Park River Access",
        "slug": "trestle-park-river-access",
        "expected_mile": 6.55,
        "snap_metres": 28.3,
        "address": "435 Elk Springs Road, Noel, MO 64854",
        "website": "https://trestlepark.com/elk-river-campground",
        "imagery_extent": [
          -94.458,
          36.5835,
          -94.452,
          36.5883
        ],
        "selected_pixel": [
          508,
          515
        ],
        "bank": "Northeast/left bank beach, immediately upstream/west of the Elk Springs Road low-water crossing.",
        "open_question": "Confirm whether the upper-trip take-out and Noel-trip put-in use different sides of the crossing, and the operator-approved passage/walk between them. Candidate is the beach, not the cabins.",
        "status": "candidate_not_approved",
        "estimated_position_accuracy_m": 30,
        "image_size": [
          1000,
          800
        ],
        "imagery_source": "https://basemap.nationalmap.gov/arcgis/rest/services/USGSImageryOnly/MapServer",
        "reviewed_at": "2026-10-04",
        "review_method": "Operator property/route maps + owner screenshots + USGS georeferenced imagery; PostGIS distance/mile checked read-only."
      }
    },
    {
      "type": "Feature",
      "geometry": {
        "type": "Point",
        "coordinates": [
          -94.49429,
          36.54897
        ]
      },
      "properties": {
        "name": "Wayside Campground River Access",
        "slug": "wayside-campground-river-access",
        "expected_mile": 11.33,
        "snap_metres": 47.8,
        "address": "201 Minnow Springs Ave, Noel, MO 64854",
        "website": "https://waysidecamp.com/camping",
        "imagery_extent": [
          -94.4975,
          36.5465,
          -94.4915,
          36.5513
        ],
        "selected_pixel": [
          535,
          388
        ],
        "bank": "Southwest/left bank designated beach near the office/highway junction, upstream of the campground no-watercraft boundary.",
        "open_question": "Confirm this part of the designated beach is the current trip landing and check-in parking route; do not use the peninsula tip.",
        "status": "candidate_not_approved",
        "estimated_position_accuracy_m": 30,
        "image_size": [
          1000,
          800
        ],
        "imagery_source": "https://basemap.nationalmap.gov/arcgis/rest/services/USGSImageryOnly/MapServer",
        "reviewed_at": "2026-10-04",
        "review_method": "Operator property/route maps + owner screenshots + USGS georeferenced imagery; PostGIS distance/mile checked read-only."
      }
    }
  ]
}
